GSAT0222 (GALILEO 26)   
1 43565U 18060B   22301.84273511 -.00000080  00000+0  00000+0 0  9994
2 43565  57.2185  17.5818 0003656 261.9975  98.0117  1.70476000 26584
GSAT0219 (GALILEO 23)   
1 43566U 18060C   22302.64985823 -.00000083  00000+0  00000+0 0  9993
2 43566  57.2192  17.5620 0003350 260.4509  99.5609  1.70476008 26571
GSAT0220 (GALILEO 24)   
1 43567U 18060D   22301.69690853 -.00000080  00000+0  00000+0 0  9991
2 43567  57.2186  17.5883 0003511 255.2822 104.7297  1.70475707 26549
BEIDOU-3 M13            
1 43622U 18072A   22302.18452147  .00000053  00000+0  00000+0 0  9992
2 43622  55.5602 106.8628 0003969 284.2450  73.5524  1.86231785 27933
BEIDOU-3 M14            
1 43623U 18072B   22302.58902583  .00000054  00000+0  00000+0 0  9992
2 43623  55.5623 106.8416 0002328 336.8451  22.3876  1.86231643 27941
GPS BIII-1              
1 43873U 18109A   22302.77704691  .00000061  00000+0  00000+0 0  9999
2 43873  55.1138 144.5921 0021370 187.3817 162.9607  2.00555473 28466
METEOR-M2 2             
1 44387U 19038A   22302.87546508  .00000017  00000+0  26981-4 0  9996
2 44387  98.7407 262.6816 0000391 194.0595 166.0573 14.23726906172536
GPS BIII-2              
1 44506U 19056A   22302.62650667 -.00000078  00000+0  00000+0 0  9991
2 44506  55.7342  23.7206 0029372 183.1866 318.7603  2.00558578 23466
BEIDOU-3 M23            
1 44542U 19061A   22302.43346431  .00000020  00000+0  00000+0 0  9993
2 44542  54.5499 227.5647 0008931 342.9766  17.0203  1.86231405 21082
BEIDOU-3 M24            
1 44543U 19061B   22302.83590749  .00000015  00000+0  00000+0 0  9995
2 44543  54.5498 227.5194 0006230 327.6755 213.6258  1.86231996 21086
BEIDOU-3 M21            
1 44793U 19078A   22301.74361054 -.00000069  00000+0  10000-3 0  9999
2 44793  54.9197 346.0281 0004885   8.1300 353.7060  1.86232369 19931
BEIDOU-3 M22            
1 44794U 19078B   22302.41866113 -.00000071  00000+0  00000+0 0  9999
2 44794  54.8935 345.9932 0003066 356.6619   9.6572  1.86232830 19945
ELEKTRO-L 3             
1 44903U 19095A   22302.83752190 -.00000094  00000+0  00000+0 0  9990
2 44903   0.0353 279.5354 0001627 268.4082 227.7628  1.00273162 10405
GPS BIII-3              
1 45854U 20041A   22302.51735440  .00000010  00000+0  00000+0 0  9990
2 45854  55.6287  80.9925 0028098 179.6828 182.1462  2.00568459 17430
GPS BIII-4              
1 46826U 20078A   22302.27922014  .00000015  00000+0  00000+0 0  9993
2 46826  54.4858 264.6627 0023943 191.6963 334.8970  2.00564917 14880
GSAT0223 (GALILEO 27)   
1 49809U 21116A   22301.52640470 -.00000079  00000+0  00000+0 0  9992
2 49809  57.2109  17.4907 0003556 203.3044 142.1576  1.70475889  5548
GSAT0224 (GALILEO 28)   
1 49810U 21116B   22301.37387701 -.00000079  00000+0  00000+0 0  9992
2 49810  57.2115  17.4930 0002997 203.8896 160.4344  1.70475869  5578
